{
  "type": "FeatureCollection",
  "features": [
    {
      "type": "Feature",
      "properties": {
        "name": "India Coastline"
      },
      "geometry": {
        "type": "LineString",
        "coordinates": [
          [
            68,
            23.5
          ],
          [
            70,
            22
          ],
          [
            72,
            20.5
          ],
          [
            75,
            17.5
          ],
          [
            80,
            14
          ],
          [
            85,
            15
          ],
          [
            90,
            24
          ],
          [
            95,
            29
          ],
          [
            100,
            30
          ],
          [
            105,
            24
          ],
          [
            110,
            21
          ],
          [
            115,
            20.5
          ],
          [
            120,
            15.5
          ],
          [
            125,
            18.5
          ],
          [
            130,
            22.5
          ],
          [
            135,
            25
          ],
          [
            68,
            23.5
          ]
        ]
      }
    }
  ]
}